EWS-G2 (GOES 15)        
1 36411U 10008A   25137.87197861  .00000047  00000+0  00000+0 0  9998
2 36411   0.2505  85.9575 0001167 124.1632  41.2960  1.00266969 55676
GOES 16                 
1 41866U 16071A   25137.45072628 -.00000123  00000+0  00000+0 0  9997
2 41866   0.0547 265.1442 0001540 206.6671 191.6730  1.00127053 31139
GOES 18                 
1 51850U 22021A   25137.70763757  .00000108  00000+0  00000+0 0  9993
2 51850   0.0112  60.3501 0000485  55.3178 237.7434  1.00272485  2625
