[
  {
    "OBJECT_NAME": "EWS-G2 (GOES 15)",
    "OBJECT_ID": "2010-008A",
    "EPOCH": "2025-05-17T20:55:38.951904",
    "MEAN_MOTION": 1.00266969,
    "ECCENTRICITY": 0.0001167,
    "INCLINATION": 0.2505,
    "RA_OF_ASC_NODE": 85.9575,
    "ARG_OF_PERICENTER": 124.1632,
    "MEAN_ANOMALY": 41.296,
    "EPHEMERIS_TYPE": 0,
    "CLASSIFICATION_TYPE": "U",
    "NORAD_CAT_ID": 36411,
    "ELEMENT_SET_NO": 999,
    "REV_AT_EPOCH": 5566,
    "BSTAR": 0,
    "MEAN_MOTION_DOT": 4.8e-07,
    "MEAN_MOTION_DDOT": 0
  },
  {
    "OBJECT_NAME": "GOES 16",
    "OBJECT_ID": "2016-071A",
    "EPOCH": "2025-05-17T10:49:02.750592",
    "MEAN_MOTION": 1.00127053,
    "ECCENTRICITY": 0.000154,
    "INCLINATION": 0.0547,
    "RA_OF_ASC_NODE": 265.1442,
    "ARG_OF_PERICENTER": 206.6671,
    "MEAN_ANOMALY": 191.673,
    "EPHEMERIS_TYPE": 0,
    "CLASSIFICATION_TYPE": "U",
    "NORAD_CAT_ID": 41866,
    "ELEMENT_SET_NO": 999,
    "REV_AT_EPOCH": 3113,
    "BSTAR": 0,
    "MEAN_MOTION_DOT": -1.23e-06,
    "MEAN_MOTION_DDOT": 0
  },
  {
    "OBJECT_NAME": "GOES 18",
    "OBJECT_ID": "2022-021A",
    "EPOCH": "2025-05-17T16:58:59.886048",
    "MEAN_MOTION": 1.00272485,
    "ECCENTRICITY": 4.85e-05,
    "INCLINATION": 0.0112,
    "RA_OF_ASC_NODE": 60.3501,
    "ARG_OF_PERICENTER": 55.3178,
    "MEAN_ANOMALY": 237.7434,
    "EPHEMERIS_TYPE": 0,
    "CLASSIFICATION_TYPE": "U",
    "NORAD_CAT_ID": 51850,
    "ELEMENT_SET_NO": 999,
    "REV_AT_EPOCH": 1184,
    "BSTAR": 0,
    "MEAN_MOTION_DOT": 1.08e-06,
    "MEAN_MOTION_DDOT": 0
  }
]